33378,COSMOS 2442 [GLONASS-M],2008,675.71,-1.0,-,65.72,Inactive,0,MEO,Kazakhstan,Russia/USSR,Unknown,Unknown,Unknown,1 33378U 08046A   25062.33030659 -.00000056  00000+0  00000+0 0  9996,2 33378  65.7174 330.7272 0019934 308.0027 239.0536  2.13107877127910,2.13107877,0.0019934,MEO
28915,COSMOS 2419 [GLONASS-M],2005,675.71,-1.0,-,65.82,Inactive,0,MEO,Kazakhstan,Russia/USSR,Unknown,Unknown,Unknown,1 28915U 05050A   25062.31282453 -.00000057  00000+0  00000+0 0  9999,2 28915  65.8172 331.9143 0015598 335.1077 220.9505  2.13108026149330,2.13108026,0.0015598,MEO
28916,COSMOS 2418 [GLONASS-M],2005,675.72,-1.0,-,65.84,Inactive,0,MEO,Kazakhstan,Russia/USSR,Unknown,Unknown,Unknown,1 28916U 05050B   25062.28303196 -.00000057  00000+0  00000+0 0  9994,2 28916  65.8391 332.0795 0012561 283.3508 261.8899  2.13106092149228,2.13106092,0.0012561,MEO
28917,COSMOS 2417 [GLONASS],2005,675.73,-1.0,-,65.82,Inactive,0,MEO,Kazakhstan,Russia/USSR,Unknown,Unknown,Unknown,1 28917U 05050C   25060.31706118 -.00000046  00000+0  00000+0 0  9996,2 28917  65.8211 332.0119 0013989  90.6724 103.7614  2.13104051149158,2.13104051,0.0013989,MEO
29671,COSMOS 2426 [GLONASS-M],2006,676.17,1480.0,-,64.7,Inactive,1,MEO,Kazakhstan,Russia/USSR,Commercial/Military,Navigation (Global or Regional Positioning),Proton,1 29671U 06062B   25060.04141884  .00000049  00000+0  00000+0 0  9993,2 29671  64.7003 210.2622 0021554 178.2278   7.1537  2.12963171141476,2.12963171,0.0021554,MEO
32277,COSMOS 2431 [GLONASS-M],2007,675.39,-1.0,-,65.84,Inactive,0,MEO,Kazakhstan,Russia/USSR,Unknown,Unknown,Unknown,1 32277U 07052C   25062.63917875 -.00000059  00000+0  00000+0 0  9999,2 32277  65.8381 331.6595 0013924 176.5483   5.8203  2.13208771135209,2.13208771,0.0013924,MEO
32394,COSMOS 2435 [GLONASS-M],2007,675.69,-1.0,-,64.32,Inactive,0,MEO,Kazakhstan,Russia/USSR,Unknown,Unknown,Unknown,1 32394U 07065B   25060.81644364  .00000051  00000+0  00000+0 0  9992,2 32394  64.3218 207.8503 0024910   0.1768 359.7869  2.13115143133678,2.13115143,0.002491,MEO
32275,COSMOS 2433 [GLONASS-M],2007,675.73,1480.0,+,65.83,Active,1,MEO,Kazakhstan,Russia/USSR,Commercial/Military,Navigation (Global or Regional Positioning),Proton,1 32275U 07052A   25062.24973445 -.00000057  00000+0  00000+0 0  9997,2 32275  65.8255 331.7400 0002623 281.5478  78.4693  2.13103838135025,2.13103838,0.0002623,MEO
32276,COSMOS 2432 [GLONASS-M],2007,675.73,1480.0,+,65.84,Active,1,MEO,Kazakhstan,Russia/USSR,Commercial/Military,Navigation (Global or Regional Positioning),Proton,1 32276U 07052B   25062.55591088 -.00000059  00000+0  00000+0 0  9993,2 32276  65.8407 331.8485 0011199 329.8903 210.4441  2.13103089135067,2.13103089,0.0011199,MEO
32393,COSMOS 2434 [GLONASS-M],2007,675.74,1480.0,+,64.32,Active,1,MEO,Kazakhstan,Russia/USSR,Commercial/Military,Navigation (Global or Regional Positioning),Proton,1 32393U 07065A   25062.38605148  .00000059  00000+0  00000+0 0  9990,2 32393  64.3182 207.8021 0004107  73.9892 282.3384  2.13101247133734,2.13101247,0.0004107,MEO
32395,COSMOS 2436 [GLONASS-M],2007,675.74,1480.0,+,64.33,Active,1,MEO,Kazakhstan,Russia/USSR,Commercial/Military,Navigation (Global or Regional Positioning),Proton,1 32395U 07065C   25061.88319319  .00000057  00000+0  00000+0 0  9996,2 32395  64.3266 207.8863 0017214   7.5349  97.3128  2.13100109133686,2.13100109,0.0017214,MEO
