[
    {
        "OBJECT_NAME": "COSMOS 2419 [GLONASS-M]",
        "OBJECT_ID": "2005-050A",
        "EPOCH": "2025-03-03T07:30:28.039392",
        "MEAN_MOTION": 2.13108026,
        "ECCENTRICITY": 0.0015598,
        "INCLINATION": 65.8172,
        "RA_OF_ASC_NODE": 331.9143,
        "ARG_OF_PERICENTER": 335.1077,
        "MEAN_ANOMALY": 220.9505,
        "EPHEMERIS_TYPE": 0,
        "CLASSIFICATION_TYPE": "U",
        "NORAD_CAT_ID": 28915,
        "ELEMENT_SET_NO": 999,
        "REV_AT_EPOCH": 14933,
        "BSTAR": 0,
        "MEAN_MOTION_DOT": -5.7e-07,
        "MEAN_MOTION_DDOT": 0
    },
    {
        "OBJECT_NAME": "COSMOS 2418 [GLONASS-M]",
        "OBJECT_ID": "2005-050B",
        "EPOCH": "2025-03-03T06:47:33.961344",
        "MEAN_MOTION": 2.13106092,
        "ECCENTRICITY": 0.0012561,
        "INCLINATION": 65.8391,
        "RA_OF_ASC_NODE": 332.0795,
        "ARG_OF_PERICENTER": 283.3508,
        "MEAN_ANOMALY": 261.8899,
        "EPHEMERIS_TYPE": 0,
        "CLASSIFICATION_TYPE": "U",
        "NORAD_CAT_ID": 28916,
        "ELEMENT_SET_NO": 999,
        "REV_AT_EPOCH": 14922,
        "BSTAR": 0,
        "MEAN_MOTION_DOT": -5.7e-07,
        "MEAN_MOTION_DDOT": 0
    },
    {
        "OBJECT_NAME": "COSMOS 2417 [GLONASS]",
        "OBJECT_ID": "2005-050C",
        "EPOCH": "2025-03-01T07:36:34.085952",
        "MEAN_MOTION": 2.13104051,
        "ECCENTRICITY": 0.0013989,
        "INCLINATION": 65.8211,
        "RA_OF_ASC_NODE": 332.0119,
        "ARG_OF_PERICENTER": 90.6724,
        "MEAN_ANOMALY": 103.7614,
        "EPHEMERIS_TYPE": 0,
        "CLASSIFICATION_TYPE": "U",
        "NORAD_CAT_ID": 28917,
        "ELEMENT_SET_NO": 999,
        "REV_AT_EPOCH": 14915,
        "BSTAR": 0,
        "MEAN_MOTION_DOT": -4.6e-07,
        "MEAN_MOTION_DDOT": 0
    },
    {
        "OBJECT_NAME": "COSMOS 2426 [GLONASS-M]",
        "OBJECT_ID": "2006-062B",
        "EPOCH": "2025-03-01T00:59:38.587776",
        "MEAN_MOTION": 2.12963171,
        "ECCENTRICITY": 0.0021554,
        "INCLINATION": 64.7003,
        "RA_OF_ASC_NODE": 210.2622,
        "ARG_OF_PERICENTER": 178.2278,
        "MEAN_ANOMALY": 7.1537,
        "EPHEMERIS_TYPE": 0,
        "CLASSIFICATION_TYPE": "U",
        "NORAD_CAT_ID": 29671,
        "ELEMENT_SET_NO": 999,
        "REV_AT_EPOCH": 14147,
        "BSTAR": 0,
        "MEAN_MOTION_DOT": 4.9e-07,
        "MEAN_MOTION_DDOT": 0
    },
    {
        "OBJECT_NAME": "COSMOS 2433 [GLONASS-M]",
        "OBJECT_ID": "2007-052A",
        "EPOCH": "2025-03-03T05:59:37.056480",
        "MEAN_MOTION": 2.13103838,
        "ECCENTRICITY": 0.0002623,
        "INCLINATION": 65.8255,
        "RA_OF_ASC_NODE": 331.74,
        "ARG_OF_PERICENTER": 281.5478,
        "MEAN_ANOMALY": 78.4693,
        "EPHEMERIS_TYPE": 0,
        "CLASSIFICATION_TYPE": "U",
        "NORAD_CAT_ID": 32275,
        "ELEMENT_SET_NO": 999,
        "REV_AT_EPOCH": 13502,
        "BSTAR": 0,
        "MEAN_MOTION_DOT": -5.7e-07,
        "MEAN_MOTION_DDOT": 0
    },
    {
        "OBJECT_NAME": "COSMOS 2432 [GLONASS-M]",
        "OBJECT_ID": "2007-052B",
        "EPOCH": "2025-03-03T13:20:30.700032",
        "MEAN_MOTION": 2.13103089,
        "ECCENTRICITY": 0.0011199,
        "INCLINATION": 65.8407,
        "RA_OF_ASC_NODE": 331.8485,
        "ARG_OF_PERICENTER": 329.8903,
        "MEAN_ANOMALY": 210.4441,
        "EPHEMERIS_TYPE": 0,
        "CLASSIFICATION_TYPE": "U",
        "NORAD_CAT_ID": 32276,
        "ELEMENT_SET_NO": 999,
        "REV_AT_EPOCH": 13506,
        "BSTAR": 0,
        "MEAN_MOTION_DOT": -5.9e-07,
        "MEAN_MOTION_DDOT": 0
    },
    {
        "OBJECT_NAME": "COSMOS 2431 [GLONASS-M]",
        "OBJECT_ID": "2007-052C",
        "EPOCH": "2025-03-03T15:20:25.044000",
        "MEAN_MOTION": 2.13208771,
        "ECCENTRICITY": 0.0013924,
        "INCLINATION": 65.8381,
        "RA_OF_ASC_NODE": 331.6595,
        "ARG_OF_PERICENTER": 176.5483,
        "MEAN_ANOMALY": 5.8203,
        "EPHEMERIS_TYPE": 0,
        "CLASSIFICATION_TYPE": "U",
        "NORAD_CAT_ID": 32277,
        "ELEMENT_SET_NO": 999,
        "REV_AT_EPOCH": 13520,
        "BSTAR": 0,
        "MEAN_MOTION_DOT": -5.9e-07,
        "MEAN_MOTION_DDOT": 0
    },
    {
        "OBJECT_NAME": "COSMOS 2434 [GLONASS-M]",
        "OBJECT_ID": "2007-065A",
        "EPOCH": "2025-03-03T09:15:54.847872",
        "MEAN_MOTION": 2.13101247,
        "ECCENTRICITY": 0.0004107,
        "INCLINATION": 64.3182,
        "RA_OF_ASC_NODE": 207.8021,
        "ARG_OF_PERICENTER": 73.9892,
        "MEAN_ANOMALY": 282.3384,
        "EPHEMERIS_TYPE": 0,
        "CLASSIFICATION_TYPE": "U",
        "NORAD_CAT_ID": 32393,
        "ELEMENT_SET_NO": 999,
        "REV_AT_EPOCH": 13373,
        "BSTAR": 0,
        "MEAN_MOTION_DOT": 5.9e-07,
        "MEAN_MOTION_DDOT": 0
    },
    {
        "OBJECT_NAME": "COSMOS 2435 [GLONASS-M]",
        "OBJECT_ID": "2007-065B",
        "EPOCH": "2025-03-01T19:35:40.730496",
        "MEAN_MOTION": 2.13115143,
        "ECCENTRICITY": 0.002491,
        "INCLINATION": 64.3218,
        "RA_OF_ASC_NODE": 207.8503,
        "ARG_OF_PERICENTER": 0.1768,
        "MEAN_ANOMALY": 359.7869,
        "EPHEMERIS_TYPE": 0,
        "CLASSIFICATION_TYPE": "U",
        "NORAD_CAT_ID": 32394,
        "ELEMENT_SET_NO": 999,
        "REV_AT_EPOCH": 13367,
        "BSTAR": 0,
        "MEAN_MOTION_DOT": 5.1e-07,
        "MEAN_MOTION_DDOT": 0
    },
    {
        "OBJECT_NAME": "COSMOS 2436 [GLONASS-M]",
        "OBJECT_ID": "2007-065C",
        "EPOCH": "2025-03-02T21:11:47.891616",
        "MEAN_MOTION": 2.13100109,
        "ECCENTRICITY": 0.0017214,
        "INCLINATION": 64.3266,
        "RA_OF_ASC_NODE": 207.8863,
        "ARG_OF_PERICENTER": 7.5349,
        "MEAN_ANOMALY": 97.3128,
        "EPHEMERIS_TYPE": 0,
        "CLASSIFICATION_TYPE": "U",
        "NORAD_CAT_ID": 32395,
        "ELEMENT_SET_NO": 999,
        "REV_AT_EPOCH": 13368,
        "BSTAR": 0,
        "MEAN_MOTION_DOT": 5.7e-07,
        "MEAN_MOTION_DDOT": 0
    },
    {
        "OBJECT_NAME": "COSMOS 2442 [GLONASS-M]",
        "OBJECT_ID": "2008-046A",
        "EPOCH": "2025-03-03T07:55:38.489376",
        "MEAN_MOTION": 2.13107877,
        "ECCENTRICITY": 0.0019934,
        "INCLINATION": 65.7174,
        "RA_OF_ASC_NODE": 330.7272,
        "ARG_OF_PERICENTER": 308.0027,
        "MEAN_ANOMALY": 239.0536,
        "EPHEMERIS_TYPE": 0,
        "CLASSIFICATION_TYPE": "U",
        "NORAD_CAT_ID": 33378,
        "ELEMENT_SET_NO": 999,
        "REV_AT_EPOCH": 12790,
        "BSTAR": 0,
        "MEAN_MOTION_DOT": -5.6e-07,
        "MEAN_MOTION_DDOT": 0
    }
]